NORAD_CAT_ID,OBJECT_NAME,OBJECT_TYPE,EPOCH,MEAN_MOTION,ECCENTRICITY,INCLINATION,RA_OF_ASC_NODE,ARG_OF_PERICENTER,MEAN_ANOMALY,BSTAR,MEAN_MOTION_DOT,MEAN_MOTION_DDOT,TLE_LINE0,TLE_LINE1,TLE_LINE2,SEMIMAJOR_AXIS,PERIOD,APOGEE,PERIGEE,DECAYED
52103.0,STARLINK-3705,PAYLOAD,2022-07-14 22:00:00,15.08826982,0.0001598,53.2153,306.6627,50.0075,75.7205,-0.00097003,-0.00015687,0.0,0 STARLINK-3705,1 52103U 22029R   22195.91667824 -.00015687  00000-0 -97003-3 0  9999,2 52103  53.2153 306.6627 0001598  50.0075  75.7205 15.08826982 19423,6917.92,95.438,540.891,538.68,0.0
52103.0,STARLINK-3705,PAYLOAD,2022-07-15 14:00:01,15.08834599,0.0001659,53.2152,303.6706,51.2116,97.6706,-0.00010224,-1.915e-05,0.0,0 STARLINK-3705,1 52103U 22029R   22196.58334491 -.00001915  00000-0 -10224-3 0  9993,2 52103  53.2152 303.6706 0001659  51.2116  97.6706 15.08834599 19527,6917.897,95.438,540.91,538.614,0.0
52103.0,STARLINK-3705,PAYLOAD,2022-07-15 22:00:00,15.08861429,0.0001634,53.215,302.1737,48.9457,111.5268,-0.00102,-0.00016494,0.0,0 STARLINK-3705,1 52103U 22029R   22196.91667824 -.00016494  00000-0 -10200-2 0  9990,2 52103  53.2150 302.1737 0001634  48.9457 111.5268 15.08861429  1305,6917.815,95.436,540.81,538.55,0.0
52103.0,STARLINK-3705,PAYLOAD,2022-07-16 06:00:00,15.08848712,0.0001537,53.2152,300.6761,55.7062,116.3785,0.0021041,0.00033366,0.0,0 STARLINK-3705,1 52103U 22029R   22197.25001157  .00033366  00000-0  21041-2 0  9999,2 52103  53.2152 300.6761 0001537  55.7062 116.3785 15.08848712 19628,6917.854,95.437,540.7819999999998,538.655,0.0
52103.0,STARLINK-3705,PAYLOAD,2022-07-16 14:00:01,15.0886517,0.0001683,53.2151,299.1814,48.1373,135.5758,-0.0017227,-0.00027619,0.0,0 STARLINK-3705,1 52103U 22029R   22197.58334491 -.00027619  00000-0 -17227-2 0  9992,2 52103  53.2151 299.1814 0001683  48.1373 135.5758 15.08865170  1307,6917.803000000001,95.436,540.8330000000002,538.504,0.0
52103.0,STARLINK-3705,PAYLOAD,2022-07-16 22:00:00,15.08878077,0.0001655,53.215,297.6842,46.6376,148.6922,-0.0036793,-0.0005842999999999,0.0,0 STARLINK-3705,1 52103U 22029R   22197.91667824 -.00058430  00000-0 -36793-2 0  9992,2 52103  53.2150 297.6842 0001655  46.6376 148.6922 15.08878077 19728,6917.764,95.435,540.774,538.484,0.0
52103.0,STARLINK-3705,PAYLOAD,2022-07-17 14:00:01,15.08843278,0.0001773,53.2151,294.692,46.7795,171.7715,-0.0017120999999999,-0.00027436,0.0,0 STARLINK-3705,1 52103U 22029R   22198.58334491 -.00027436  00000-0 -17121-2 0  9993,2 52103  53.2151 294.6920 0001773  46.7795 171.7715 15.08843278 19823,6917.87,95.437,540.962,538.509,0.0
52103.0,STARLINK-3705,PAYLOAD,2022-07-17 22:00:00,15.08845442,0.0001744,53.2158,293.1914,46.5147,183.6233,-0.0035238,-0.00055943,0.0,0 STARLINK-3705,1 52103U 22029R   22198.91667824 -.00055943  00000-0 -35238-2 0  9992,2 52103  53.2158 293.1914 0001744  46.5147 183.6233 15.08845442  1300,6917.864000000001,95.437,540.935,538.5219999999998,0.0
52103.0,STARLINK-3705,PAYLOAD,2022-07-18 14:00:01,15.08821935,0.0001833,53.2153,290.2027,48.0074,205.2707,0.0011052,0.00017336,0.0,0 STARLINK-3705,1 52103U 22029R   22199.58334491  .00017336  00000-0  11052-2 0  9997,2 52103  53.2153 290.2027 0001833  48.0074 205.2707 15.08821935 19973,6917.936,95.439,541.069,538.533,0.0
52103.0,STARLINK-3705,PAYLOAD,2022-07-18 22:00:00,15.08855164,0.0001729,53.2152,288.7053,48.2912,216.5641,-0.0016825,-0.00026977,0.0,0 STARLINK-3705,1 52103U 22029R   22199.91667824 -.00026977  00000-0 -16825-2 0  9999,2 52103  53.2152 288.7053 0001729  48.2912 216.5641 15.08855164  1301,6917.834,95.437,540.895,538.503,0.0
52103.0,STARLINK-3705,PAYLOAD,2022-07-19 14:00:01,15.08845623,0.0001771,53.2153,285.7132,46.0447,242.0406,-0.00047628,-7.861e-05,0.0,0 STARLINK-3705,1 52103U 22029R   22200.58334491 -.00007861  00000-0 -47628-3 0  9993,2 52103  53.2153 285.7132 0001771  46.0447 242.0406 15.08845623  1305,6917.863,95.437,540.953,538.503,0.0
52103.0,STARLINK-3705,PAYLOAD,2022-07-19 22:00:00,15.08898227,0.000174,53.2159,284.212,45.4859,254.1863,-0.010079,-0.00157463,0.0,0 STARLINK-3705,1 52103U 22029R   22200.91667824 -.00157463  00000-0 -10079-1 0  9991,2 52103  53.2159 284.2120 0001740  45.4859 254.1863 15.08898227 20173,6917.7019999999975,95.434,540.771,538.364,0.0
52103.0,STARLINK-3705,PAYLOAD,2022-07-20 14:00:01,15.08852746,0.0001778,53.215,281.2237,47.0734,275.8362,-0.00084631,-0.00013737,0.0,0 STARLINK-3705,1 52103U 22029R   22201.58334491 -.00013737  00000-0 -84631-3 0  9998,2 52103  53.2150 281.2237 0001778  47.0734 275.8362 15.08852746  1305,6917.840999999999,95.437,540.936,538.476,0.0
52103.0,STARLINK-3705,PAYLOAD,2022-07-20 22:00:01,15.08850573,0.0001668,53.2147,279.726,48.7877,285.7847,-0.0053181999999999,-0.00083967,0.0,0 STARLINK-3705,1 52103U 22029R   22201.91668981 -.00083967  00000-0 -53182-2 0  9997,2 52103  53.2147 279.7260 0001668  48.7877 285.7847 15.08850573 20320,6917.848000000001,95.437,540.867,538.559,0.0
52103.0,STARLINK-3705,PAYLOAD,2022-07-21 08:00:01,15.08816262,0.000169,53.2148,277.8557,53.6147,25.3413,-0.0013345,-0.0002145,0.0,0 STARLINK-3705,1 52103U 22029R   22202.33334491 -.00021450  00000-0 -13345-2 0  9996,2 52103  53.2148 277.8557 0001690  53.6147  25.3413 15.08816262 20390,6917.953,95.439,540.987,538.649,0.0
52103.0,STARLINK-3705,PAYLOAD,2022-07-21 14:00:01,15.08789013,0.0001826,53.2147,276.7346,49.3211,308.3696,0.0018861,0.00029815,0.0,0 STARLINK-3705,1 52103U 22029R   22202.58335648  .00029815  00000-0  18861-2 0  9997,2 52103  53.2147 276.7346 0001826  49.3211 308.3696 15.08789013  1308,6918.036,95.441,541.164,538.638,0.0
52103.0,STARLINK-3705,PAYLOAD,2022-07-21 22:00:00,15.08816849,0.0001713,53.2144,275.2368,51.5241,317.6489,-0.0010164999999999,-0.00016419,0.0,0 STARLINK-3705,1 52103U 22029R   22202.91667824 -.00016419  00000-0 -10165-2 0  9995,2 52103  53.2144 275.2368 0001713  51.5241 317.6489 15.08816849  1307,6917.951,95.439,541.001,538.631,0.0
52103.0,STARLINK-3705,PAYLOAD,2022-07-22 06:00:00,15.08824655,0.0001686999999999,53.2145,273.7403,55.6387,325.0907,0.00015297,2.146e-05,0.0,0 STARLINK-3705,1 52103U 22029R   22203.25001157  .00002146  00000-0  15297-3 0  9996,2 52103  53.2145 273.7403 0001687  55.6387 325.0907 15.08824655 20535,6917.927,95.439,540.9590000000002,538.625,0.0
52103.0,STARLINK-3705,PAYLOAD,2022-07-22 22:00:00,15.08838511,0.0001751,53.2143,270.7476,51.4857,352.4052,-0.00039599,-6.585e-05,0.0,0 STARLINK-3705,1 52103U 22029R   22203.91667824 -.00006585  00000-0 -39599-3 0  9992,2 52103  53.2143 270.7476 0001751  51.4857 352.4052 15.08838511  1303,6917.885,95.438,540.961,538.539,0.0
52103.0,STARLINK-3705,PAYLOAD,2022-07-23 14:00:01,15.08822408,0.0001915,53.2144,267.7562,48.4982,18.6407,0.0026058,0.00041408,0.0,0 STARLINK-3705,1 52103U 22029R   22204.58335648  .00041408  00000-0  26058-2 0  9998,2 52103  53.2144 267.7562 0001915  48.4982  18.6407 15.08822408  1306,6917.934,95.439,541.124,538.474,0.0
52103.0,STARLINK-3705,PAYLOAD,2022-07-23 22:00:00,15.08853697,0.0001797,53.2144,266.2582,51.246,27.4311,7.4067e-05,8.91e-06,0.0,0 STARLINK-3705,1 52103U 22029R   22204.91667824  .00000891  00000-0  74067-4 0  9995,2 52103  53.2144 266.2582 0001797  51.2460  27.4311 15.08853697  1309,6917.839,95.437,540.947,538.46,0.0
52103.0,STARLINK-3705,PAYLOAD,2022-07-24 06:00:00,15.08869533,0.0001834,53.2145,264.7618,53.6029,36.6743,-0.000719,-0.00011722,0.0,0 STARLINK-3705,1 52103U 22029R   22205.25001157 -.00011722  00000-0 -71900-3 0  9993,2 52103  53.2145 264.7618 0001834  53.6029  36.6743 15.08869533 20838,6917.79,95.436,540.924,538.386,0.0
52103.0,STARLINK-3705,PAYLOAD,2022-07-24 14:00:01,15.0884897,0.0001950999999999,53.2145,263.2669,46.6878,55.2167,0.00025689,3.804e-05,0.0,0 STARLINK-3705,1 52103U 22029R   22205.58334491  .00003804  00000-0  25689-3 0  9992,2 52103  53.2145 263.2669 0001951  46.6878  55.2167 15.08848970  1302,6917.853,95.437,541.068,538.368,0.0
52103.0,STARLINK-3705,PAYLOAD,2022-07-24 22:00:00,15.08835553,0.0001761,53.2147,261.7688,48.7937,64.7259,0.00030884,4.63e-05,0.0,0 STARLINK-3705,1 52103U 22029R   22205.91667824  .00004630  00000-0  30884-3 0  9999,2 52103  53.2147 261.7688 0001761  48.7937  64.7259 15.08835553  1306,6917.894,95.438,540.977,538.5409999999998,0.0
52103.0,STARLINK-3705,PAYLOAD,2022-07-25 14:00:01,15.0882448,0.0001955999999999,53.2147,258.7776,44.6086,92.1086,0.0027743,0.00044123,0.0,0 STARLINK-3705,1 52103U 22029R   22206.58334491  .00044123  00000-0  27743-2 0  9994,2 52103  53.2147 258.7776 0001956  44.6086  92.1086 15.08824480  1306,6917.928000000001,95.439,541.146,538.44,0.0
52103.0,STARLINK-3705,PAYLOAD,2022-07-25 22:00:00,15.088394400000002,0.0001742,53.2148,257.2796,47.451,100.868,-0.0014718,-0.00023635,0.0,0 STARLINK-3705,1 52103U 22029R   22206.91667824 -.00023635  00000-0 -14718-2 0  9995,2 52103  53.2148 257.2796 0001742  47.4510 100.8680 15.08839440  1308,6917.882,95.438,540.952,538.5419999999998,0.0
52103.0,STARLINK-3705,PAYLOAD,2022-07-26 06:00:00,15.08840283,0.0001766999999999,53.2149,255.7835,48.463,111.4329,-0.0014735999999999,-0.00023664,0.0,0 STARLINK-3705,1 52103U 22029R   22207.25001157 -.00023664  00000-0 -14736-2 0  9996,2 52103  53.2149 255.7835 0001767  48.4630 111.4329 15.08840283 21135,6917.88,95.438,540.967,538.5219999999998,0.0
52103.0,STARLINK-3705,PAYLOAD,2022-07-26 14:00:01,15.08805926,0.0001916999999999,53.2146,254.2885,42.615,128.8746,0.0030461999999999,0.00048481,0.0,0 STARLINK-3705,1 52103U 22029R   22207.58334491  .00048481  00000-0  30462-2 0  9998,2 52103  53.2146 254.2885 0001917  42.6150 128.8746 15.08805926  1308,6917.985,95.44,541.1759999999998,538.523,0.0
52103.0,STARLINK-3705,PAYLOAD,2022-07-26 22:00:00,15.08821047,0.0001725,53.2145,252.7904,47.1158,135.9551,0.0011654999999999,0.000183,0.0,0 STARLINK-3705,1 52103U 22029R   22207.91667824  .00018300  00000-0  11655-2 0  9994,2 52103  53.2145 252.7904 0001725  47.1158 135.9551 15.08821047 21236,6917.938,95.439,540.997,538.61,0.0
